NORAD_CAT_ID,OBJECT_NAME,OBJECT_TYPE,EPOCH,MEAN_MOTION,ECCENTRICITY,INCLINATION,RA_OF_ASC_NODE,ARG_OF_PERICENTER,MEAN_ANOMALY,BSTAR,MEAN_MOTION_DOT,MEAN_MOTION_DDOT,TLE_LINE0,TLE_LINE1,TLE_LINE2,SEMIMAJOR_AXIS,PERIOD,APOGEE,PERIGEE,DECAYED
54760.0,STARLINK-5220,PAYLOAD,2023-10-26 02:42:35,15.08841266,0.0001751,53.2175,330.0375,100.151,259.9679,7.0473e-05,8.34e-06,0.0,0 STARLINK-5220,1 54760U 22175C   23299.11291514  .00000834  00000-0  70473-4 0  9998,2 54760  53.2175 330.0375 0001751 100.1510 259.9679 15.08841266 47087,6917.877,95.437,540.953,538.53,0.0
54760.0,STARLINK-5220,PAYLOAD,2023-10-26 10:39:31,15.08844013,0.0001739,53.2189,328.552,100.2492,259.8696,9.9361e-05,1.294e-05,0.0,0 STARLINK-5220,1 54760U 22175C   23299.44411381  .00001294  00000-0  99361-4 0  9998,2 54760  53.2189 328.5520 0001739 100.2492 259.8696 15.08844013 49298,6917.868,95.437,540.936,538.53,0.0
54760.0,STARLINK-5220,PAYLOAD,2023-10-26 18:36:27,15.08841523,0.0001743,53.219,327.0655,99.6938,260.4251,6.0022e-05,6.67e-06,0.0,0 STARLINK-5220,1 54760U 22175C   23299.77531550  .00000667  00000-0  60022-4 0  9990,2 54760  53.2190 327.0655 0001743  99.6938 260.4251 15.08841523 49348,6917.876,95.437,540.947,538.535,0.0
54760.0,STARLINK-5220,PAYLOAD,2023-10-27 12:05:40,15.0885688,0.000179,53.2176,323.7936,97.145,262.9746,0.00024409,3.601e-05,0.0,0 STARLINK-5220,1 54760U 22175C   23300.50394343  .00003601  00000-0  24409-3 0  9990,2 54760  53.2176 323.7936 0001790  97.1450 262.9746 15.08856880 47291,6917.829,95.436,540.932,538.456,0.0
54760.0,STARLINK-5220,PAYLOAD,2023-10-27 18:27:13,15.08845849,0.0001593,53.2172,322.5995,79.397,280.7202,0.00013382,1.843e-05,0.0,0 STARLINK-5220,1 54760U 22175C   23300.76890822  .00001843  00000-0  13382-3 0  9995,2 54760  53.2172 322.5995 0001593  79.3970 280.7202 15.08845849 47332,6917.863,95.437,540.83,538.625,0.0
54760.0,STARLINK-5220,PAYLOAD,2023-10-28 10:21:06,15.08828252,0.0001892,53.2185,319.6339,90.2917,269.8292,-0.00011923,-2.185e-05,0.0,0 STARLINK-5220,1 54760U 22175C   23301.43132171 -.00002185  00000-0 -11923-3 0  9997,2 54760  53.2185 319.6339 0001892  90.2917 269.8292 15.08828252 47437,6917.916,95.438,541.09,538.472,0.0
54760.0,STARLINK-5220,PAYLOAD,2023-10-28 18:18:01,15.08835782,0.0001823,53.218,318.1477,93.6713,266.4488,1.3767e-06,-2.66e-06,0.0,0 STARLINK-5220,1 54760U 22175C   23301.76251939 -.00000266  00000-0  13767-5 0  9994,2 54760  53.2180 318.1477 0001823  93.6713 266.4488 15.08835782 47485,6917.893,95.438,541.019,538.497,0.0
54760.0,STARLINK-5220,PAYLOAD,2023-10-29 08:36:29,15.08854608,0.0001756,53.217,315.4721,98.1484,261.9707,0.00044144,6.747e-05,0.0,0 STARLINK-5220,1 54760U 22175C   23302.35867269  .00006747  00000-0  44144-3 0  9999,2 54760  53.2170 315.4721 0001756  98.1484 261.9707 15.08854608 47578,6917.836,95.437,540.916,538.486,0.0
54760.0,STARLINK-5220,PAYLOAD,2023-10-29 18:08:48,15.08846284,0.0001718,53.2168,313.6826,90.6644,269.4545,0.00039325,5.977e-05,0.0,0 STARLINK-5220,1 54760U 22175C   23302.75611657  .00005977  00000-0  39325-3 0  9990,2 54760  53.2168 313.6826 0001718  90.6644 269.4545 15.08846284 47635,6917.861,95.437,540.915,538.538,0.0
54760.0,STARLINK-5220,PAYLOAD,2023-10-30 08:27:17,15.08838107,0.0001993,53.2173,311.0072,85.5615,274.5605,0.00012594,1.717e-05,0.0,0 STARLINK-5220,1 54760U 22175C   23303.35228083  .00001717  00000-0  12594-3 0  9991,2 54760  53.2173 311.0072 0001993  85.5615 274.5605 15.08838107 47721,6917.886,95.438,541.13,538.372,0.0
54760.0,STARLINK-5220,PAYLOAD,2023-10-30 17:59:36,15.08834121,0.0001677,53.2159,309.2204,92.7398,267.3786,6.2914e-06,-1.88e-06,0.0,0 STARLINK-5220,1 54760U 22175C   23303.74972234 -.00000188  00000-0  62914-5 0  9993,2 54760  53.2159 309.2204 0001677  92.7398 267.3786 15.08834121 49946,6917.898,95.438,540.923,538.603,0.0
54760.0,STARLINK-5220,PAYLOAD,2023-10-31 06:42:41,15.08837565,0.0001768,53.2164,306.842,91.9469,268.1726,2.177e-05,5.8e-07,0.0,0 STARLINK-5220,1 54760U 22175C   23304.27964447  .00000058  00000-0  21770-4 0  9998,2 54760  53.2164 306.8420 0001768  91.9469 268.1726 15.08837565 50025,6917.888,95.438,540.976,538.53,0.0
54760.0,STARLINK-5220,PAYLOAD,2023-11-01 06:33:28,15.08845952,0.0001728,53.2165,302.3817,98.0288,262.0901,0.00028013,4.174e-05,0.0,0 STARLINK-5220,1 54760U 22175C   23305.27324398  .00004174  00000-0  28013-3 0  9993,2 54760  53.2165 302.3817 0001728  98.0288 262.0901 15.08845952 50173,6917.862,95.437,540.923,538.532,0.0
54760.0,STARLINK-5220,PAYLOAD,2023-11-02 04:48:52,15.08844093,0.0001748,53.2168,298.2182,96.5602,263.5589,0.00019109,2.755e-05,0.0,0 STARLINK-5220,1 54760U 22175C   23306.20060513  .00002755  00000-0  19109-3 0  9992,2 54760  53.2168 298.2182 0001748  96.5602 263.5589 15.08844093 48157,6917.868,95.437,540.942,538.524,0.0
54760.0,STARLINK-5220,PAYLOAD,2023-11-02 09:35:01,15.08847979,0.0001806,53.2173,297.3256,99.6843,260.4353,0.00021209,3.09e-05,0.0,0 STARLINK-5220,1 54760U 22175C   23306.39932232  .00003090  00000-0  21209-3 0  9995,2 54760  53.2173 297.3256 0001806  99.6843 260.4353 15.08847979 50346,6917.856,95.437,540.97,538.472,0.0
54760.0,STARLINK-5220,PAYLOAD,2023-11-03 06:15:02,15.08844345,0.0001737,53.2174,293.4582,99.6376,260.4812,8.7759e-06,-1.48e-06,0.0,0 STARLINK-5220,1 54760U 22175C   23307.26044268 -.00000148  00000-0  87759-5 0  9991,2 54760  53.2174 293.4582 0001737  99.6376 260.4812 15.08844345 48318,6917.867,95.437,540.934,538.53,0.0
54760.0,STARLINK-5220,PAYLOAD,2023-11-04 04:30:26,15.08839554,0.0001604,53.2175,289.2951,102.7152,257.402,4.7387e-05,4.66e-06,0.0,0 STARLINK-5220,1 54760U 22175C   23308.18780917  .00000466  00000-0  47387-4 0  9995,2 54760  53.2175 289.2951 0001604 102.7152 257.4020 15.08839554 48451,6917.882,95.438,540.856,538.637,0.0
54760.0,STARLINK-5220,PAYLOAD,2023-11-04 09:16:35,15.08845898,0.0001536,53.2175,288.406,99.0848,261.0318,6.7269e-05,7.83e-06,0.0,0 STARLINK-5220,1 54760U 22175C   23308.38652508  .00000783  00000-0  67269-4 0  9994,2 54760  53.2175 288.4060 0001536  99.0848 261.0318 15.08845898 50640,6917.862,95.437,540.79,538.665,0.0
54760.0,STARLINK-5220,PAYLOAD,2023-11-04 15:38:08,15.08840623,0.0001531,53.2169,287.2164,92.9106,267.2061,2.8464e-05,1.65e-06,0.0,0 STARLINK-5220,1 54760U 22175C   23308.65148669  .00000165  00000-0  28464-4 0  9990,2 54760  53.2169 287.2164 0001531  92.9106 267.2061 15.08840623 50687,6917.878,95.438,540.803,538.684,0.0
54760.0,STARLINK-5220,PAYLOAD,2023-11-05 07:31:59,15.08854756,0.0001714,53.2175,284.2417,104.2435,255.8748,0.00030707,4.604e-05,0.0,0 STARLINK-5220,1 54760U 22175C   23309.31388102  .00004604  00000-0  30707-3 0  9996,2 54760  53.2175 284.2417 0001714 104.2435 255.8748 15.08854756 48625,6917.835,95.437,540.886,538.515,0.0
54760.0,STARLINK-5220,PAYLOAD,2023-11-06 04:11:58,15.08884929,0.0001699,53.2168,280.3768,117.6908,242.4257,0.00080016,0.00012485,0.0,0 STARLINK-5220,1 54760U 22175C   23310.17498615  .00012485  00000-0  80016-3 0  9997,2 54760  53.2168 280.3768 0001699 117.6908 242.4257 15.08884929 48754,6917.743,95.435,540.783,538.433,0.0
54760.0,STARLINK-5220,PAYLOAD,2023-11-06 15:19:41,15.08852648,0.0001741,53.2166,278.2954,76.9033,283.2153,9.9217e-05,1.292e-05,0.0,0 STARLINK-5220,1 54760U 22175C   23310.63867283  .00001292  00000-0  99217-4 0  9997,2 54760  53.2166 278.2954 0001741  76.9033 283.2153 15.08852648 48828,6917.842,95.437,540.911,538.502,0.0
54760.0,STARLINK-5220,PAYLOAD,2023-11-07 04:02:47,15.08823721,0.0001638,53.2173,275.9158,101.8061,258.3115,-0.000456,-7.535e-05,0.0,0 STARLINK-5220,1 54760U 22175C   23311.16860484 -.00007535  00000-0 -45600-3 0  9996,2 54760  53.2173 275.9158 0001638 101.8061 258.3115 15.08823721 48900,6917.93,95.439,540.928,538.662,0.0
54760.0,STARLINK-5220,PAYLOAD,2023-11-07 07:13:33,15.08831097,0.0001594,53.2176,275.3216,91.7384,268.3791,-0.00023012,-3.948e-05,0.0,0 STARLINK-5220,1 54760U 22175C   23311.30108574 -.00003948  00000-0 -23012-3 0  9994,2 54760  53.2176 275.3216 0001594  91.7384 268.3791 15.08831097 51087,6917.908,95.438,540.875,538.67,0.0
54760.0,STARLINK-5220,PAYLOAD,2023-11-08 03:53:33,15.08867114,0.0001171,53.2172,271.4616,77.8808,282.2315,0.00017832,2.553e-05,0.0,0 STARLINK-5220,1 54760U 22175C   23312.16219419  .00002553  00000-0  17832-3 0  9992,2 54760  53.2172 271.4616 0001171  77.8808 282.2315 15.08867114 49051,6917.798,95.436,540.473,538.852,0.0
54760.0,STARLINK-5220,PAYLOAD,2023-11-09 03:44:21,15.08851623,0.000136,53.2175,267.0011,93.6661,266.4487,0.00038728,5.883e-05,0.0,0 STARLINK-5220,1 54760U 22175C   23313.15580710  .00005883  00000-0  38728-3 0  9993,2 54760  53.2175 267.0011 0001360  93.6661 266.4487 15.08851623 49206,6917.845,95.437,540.651,538.769,0.0
54760.0,STARLINK-5220,PAYLOAD,2023-11-09 06:55:07,15.08853296,0.0001395,53.2176,266.401,85.437,274.6782,0.00043174,6.592e-05,0.0,0 STARLINK-5220,1 54760U 22175C   23313.28828394  .00006592  00000-0  43174-3 0  9999,2 54760  53.2176 266.4010 0001395  85.4370 274.6782 15.08853296 51382,6917.84,95.437,540.67,538.74,0.0
54760.0,STARLINK-5220,PAYLOAD,2023-11-10 03:35:09,15.08840036,0.0001215,53.2174,262.5364,84.5842,275.5289,2.5611e-05,1.2e-06,0.0,0 STARLINK-5220,1 54760U 22175C   23314.14941239  .00000120  00000-0  25611-4 0  9997,2 54760  53.2174 262.5364 0001215  84.5842 275.5289 15.08840036 49358,6917.88,95.438,540.586,538.905,0.0
54760.0,STARLINK-5220,PAYLOAD,2023-11-10 13:07:28,15.08841265,0.0001161,53.217,260.7491,83.9248,276.1877,2.2682e-05,7.3e-07,0.0,0 STARLINK-5220,1 54760U 22175C   23314.54685206  .00000073  00000-0  22682-4 0  9992,2 54760  53.2170 260.7491 0001161  83.9248 276.1877 15.08841265 51570,6917.877,95.437,540.545,538.938,0.0
54760.0,STARLINK-5220,PAYLOAD,2023-11-11 03:25:55,15.08849759,0.0001225,53.2168,258.0744,103.3652,256.7476,6.2061e-05,7e-06,0.0,0 STARLINK-5220,1 54760U 22175C   23315.14300542  .00000700  00000-0  62061-4 0  9998,2 54760  53.2168 258.0744 0001225 103.3652 256.7476 15.08849759 49500,6917.851,95.437,540.563,538.868,0.0
